FLOCK 4G-29             
1 62642U 25009AK  25186.78737577  .00007941  00000+0  36043-3 0  9998
2 62642  97.4327 266.9089 0004721  81.9266 278.2505 15.21057964 26108
FLOCK 4G-32             
1 62643U 25009AL  25186.79306144  .00005539  00000+0  25291-3 0  9996
2 62643  97.4249 266.7303 0003770  97.1143 263.0522 15.20994238 26109
ANSER LEADER-S          
1 62644U 25009AM  25186.73419969  .00021803  00000+0  91205-3 0  9991
2 62644  97.4342 267.1633 0003104  99.3654 260.7934 15.23593622 26114
FLOCK 4G-22             
1 62645U 25009AN  25186.95440426  .00005550  00000+0  25068-3 0  9993
2 62645  97.4319 267.1266 0004249  86.6277 273.5444 15.21364919 26146
FLOCK 4G-25             
1 62646U 25009AP  25186.75848909  .00005691  00000+0  25714-3 0  9994
2 62646  97.4317 266.9271 0003730  86.7777 273.3885 15.21344360 26110
FLOCK 4G-23             
1 62647U 25009AQ  25186.89955729  .00005776  00000+0  26170-3 0  9990
2 62647  97.4257 266.9086 0003720 106.5849 253.5796 15.21238432 26133
LIME                    
1 62648U 25009AR  25186.77635814  .00007388  00000+0  32573-3 0  9993
2 62648  97.4244 266.8888 0003472 118.8841 241.2744 15.22081256 26128
2025-009AS              
1 62649U 25009AS  25186.79181996  .00012595  00000+0  50287-3 0  9991
2 62649  97.4320 267.4883 0003480  94.4162 265.7473 15.25285551 26150
FLOCK 4G-34             
1 62650U 25009AT  25186.76630418  .00005728  00000+0  25966-3 0  9994
2 62650  97.4268 266.8097 0003618  95.0272 265.1377 15.21227899 26115
FLOCK 4G-21             
1 62651U 25009AU  25186.78749322  .00006558  00000+0  29100-3 0  9998
2 62651  97.4298 267.0031 0003293  94.5308 265.6304 15.21905403 26123
FLOCK 4G-31             
1 62652U 25009AV  25186.76613139  .00005693  00000+0  25814-3 0  9990
2 62652  97.4275 266.8236 0003279 101.8953 258.2651 15.21223562 26116
PAUSAT-1                
1 62653U 25009AW  25186.91631538  .00003190  00000+0  15183-3 0  9999
2 62653  97.4271 266.7643 0003320  95.9307 264.2306 15.19876115 26127
BRO-16                  
1 62654U 25009AX  25186.74870314  .00003105  00000+0  14683-3 0  9998
2 62654  97.4354 266.8650 0003616  86.1936 273.9712 15.20119561 26100
2025-009AY              
1 62655U 25009AY  25186.74944279  .00011213  00000+0  45733-3 0  9990
2 62655  97.4345 267.4645 0003062  81.3088 278.8496 15.24599697 26145
2025-009AZ              
1 62656U 25009AZ  25186.72960105  .00007743  00000+0  33455-3 0  9996
2 62656  97.4249 266.9683 0002920 112.7940 247.3605 15.22756340 26122
2025-009BA              
1 62657U 25009BA  25186.86209658  .00005725  00000+0  25611-3 0  9994
2 62657  97.4260 266.9625 0003346  78.0116 282.1495 15.21681669 26139
TROLL                   
1 62658U 25009BB  25186.89040240  .00006520  00000+0  28723-3 0  9999
2 62658  97.4206 266.9599 0002805 126.9643 233.1850 15.22158477 80630
FLOCK 4G-4              
1 62659U 25009BC  25186.74557402  .00005891  00000+0  26882-3 0  9991
2 62659  97.4264 266.6702 0004546 102.7112 257.4632 15.20984644 83715
FLOCK 4G-6              
1 62660U 25009BD  25186.74085288  .00006205  00000+0  28367-3 0  9991
2 62660  97.4254 266.6517 0005133 109.0827 251.0965 15.20896472 83693
FLOCK 4G-2              
1 62661U 25009BE  25186.73328020  .00005832  00000+0  26514-3 0  9992
2 62661  97.4317 266.8149 0006440 101.6230 258.5729 15.21106346 83713
FLOCK 4G-5              
1 62663U 25009BG  25186.75045867  .00005697  00000+0  26043-3 0  9997
2 62663  97.4326 266.8126 0006402 101.1173 259.0782 15.20926933 26105
LYRA-1                  
1 62664U 25009BH  25186.75140440  .00006674  00000+0  40426-3 0  9998
2 62664  97.4351 264.8663 0009274 319.5829  40.4711 15.10877824 25972
JAY-D2                  
1 62665U 25009BJ  25186.87929240  .00002880  00000+0  14106-3 0  9996
2 62665  97.4210 266.4029 0006079 102.4899 257.7016 15.18939227 26108
FLOCK 4G-1              
1 62666U 25009BK  25186.74730828  .00006172  00000+0  28082-3 0  9991
2 62666  97.4330 266.8242 0006570 101.9404 258.2569 15.21057007 26105
FLOCK 4G-14             
1 62667U 25009BL  25186.77191022  .00006837  00000+0  31309-3 0  9996
2 62667  97.4332 266.7981 0006651 100.0010 260.1976 15.20793757 26102
JAY-C                   
1 62668U 25009BM  25186.88025906  .00002779  00000+0  13623-3 0  9996
2 62668  97.4277 266.5244 0006358 107.2963 252.8967 15.18942538 83742
JAY-D1                  
1 62669U 25009BN  25186.87947837  .00002838  00000+0  13905-3 0  9991
2 62669  97.4344 266.6516 0007060 108.4059 251.7943 15.18940748 83744
FLOCK 4G-10             
1 62670U 25009BP  25186.77181524  .00006337  00000+0  29053-3 0  9994
2 62670  97.4244 266.5934 0006541 110.8058 249.3878 15.20780847 83742
SKYBEE-A01              
1 62671U 25009BQ  25186.90262411  .00002086  00000+0  10426-3 0  9996
2 62671  97.4305 266.5543 0007218 101.9078 258.2966 15.18528012 83740
2025-009BR              
1 62672U 25009BR  25186.80892186  .00003113  00000+0  15147-3 0  9991
2 62672  97.4275 266.4624 0006637 105.1567 255.0402 15.19108067 83733
IMPULSE-2 MIRA          
1 62673U 25009BS  25186.77666067  .00001906  00000+0  93256-4 0  9991
2 62673  97.5502 262.3293 0004331 333.0824  27.0185 15.19433835 83720
2025-009BT              
1 62674U 25009BT  25186.74249796  .00006854  00000+0  31007-3 0  9997
2 62674  97.4374 266.9249 0007275  95.2841 264.9225 15.21208644 83744
FLOCK 4G-36             
1 62675U 25009BU  25186.77769881  .00007152  00000+0  32748-3 0  9998
2 62675  97.4326 266.7727 0006840 100.3671 259.8336 15.20777998 26102
FOSSASAT-2E19 (TAT-E)   
1 62676U 25009BV  25186.72704966  .00002448  00000+0  12239-3 0  9993
2 62676  97.4265 266.2355 0007304 107.5082 252.6951 15.18364788 26074
ELEVATION-1             
1 62677U 25009BW  25186.90117726  .00013435  00000+0  55601-3 0  9994
2 62677  97.4217 267.1625 0006593 108.7780 251.4173 15.24047155 83797
FLOCK 4G-15             
1 62678U 25009BX  25186.95397983  .00006008  00000+0  27402-3 0  9991
2 62678  97.4328 266.9954 0007182  96.8990 263.3063 15.20978315 83773
FLOCK 4G-30             
1 62679U 25009BY  25186.71882459  .00007214  00000+0  33011-3 0  9996
2 62679  97.4247 266.5198 0006510 116.3153 243.8752 15.20798530 83736
FLOCK 4G-18             
1 62680U 25009BZ  25186.72297292  .00007035  00000+0  32284-3 0  9996
2 62680  97.4323 266.6847 0007397 108.2670 251.9371 15.20706778 83733
FLOCK 4G-17             
1 62681U 25009CA  25186.74699059  .00006330  00000+0  28755-3 0  9991
2 62681  97.4241 266.6302 0006878 113.0830 247.1131 15.21097128 83749
FOREST-3                
1 62682U 25009CB  25186.75873506  .00003527  00000+0  16718-3 0  9995
2 62682  97.4217 266.3947 0007318 113.4773 246.7232 15.19929266 83735
FLOCK 4G-35             
1 62683U 25009CC  25186.79178723  .00006464  00000+0  29766-3 0  9999
2 62683  97.4314 266.7258 0007338  99.1128 261.0938 15.20617267 83740
IRIS-F2                 
1 62684U 25009CD  25186.71874317  .00004532  00000+0  21514-3 0  9991
2 62684  97.4211 266.2870 0007605 115.7939 244.4081 15.19722780 83721
FLOCK 4G-33             
1 62685U 25009CE  25186.78481035  .00005097  00000+0  24209-3 0  9991
2 62685  97.4257 266.4585 0007755 105.3306 254.8786 15.19649012 26096
FOSSASAT-2E18 (TAT-A)   
1 62686U 25009CF  25186.73651873  .00002177  00000+0  10933-3 0  9991
2 62686  97.4282 266.2665 0007968 105.6341 254.5773 15.18308786 26070
HYPE                    
1 62687U 25009CG  25186.75583809  .00041671  00000+0  12754-2 0  9991
2 62687  97.4411 268.5414 0001296  46.5616 313.5734 15.33708825 26199
BLUEBON                 
1 62688U 25009CH  25186.78370650  .00008013  00000+0  34068-3 0  9999
2 62688  97.4284 267.1343 0003336 109.1410 251.0188 15.23291212 26105
LOGSATS                 
1 62689U 25009CJ  25186.76408043  .00024059  00000+0  87307-3 0  9998
2 62689  97.4258 267.5577 0007060  91.8929 268.3119 15.28296800 26131
HADES-R                 
1 62690U 25009CK  25186.70657281  .00030735  00000+0  10369-2 0  9995
2 62690  97.4092 267.4366 0001947  35.2034 324.9335 15.30648436 26140
2025-009CL              
1 62691U 25009CL  25186.74711069  .00013213  00000+0  54944-3 0  9995
2 62691  97.4110 266.6539 0003274  37.4961 322.6504 15.23903484 26099
HYDRA-T                 
1 62692U 25009CM  25186.16448691  .00031582  00000+0  10569-2 0  9993
2 62692  97.4089 266.9393 0001644  33.9428 326.1918 15.30904540 26061
2025-009CN              
1 62693U 25009CN  25186.66339542  .00021564  00000+0  80152-3 0  9998
2 62693  97.4436 267.7776 0002182  50.9344 309.2089 15.27550794 83783
LEMUR-2-WILSON          
1 62694U 25009CP  25186.77567130  .00002017  00000+0  20033-3 0  9991
2 62694  97.7336 266.2841 0004919 107.3534 252.8224 14.92813960 25633
CONNECTA IOT-8          
1 62695U 25009CQ  25186.74447298  .00000686  00000+0  72816-4 0  9998
2 62695  97.7389 266.2693 0004464  87.9215 272.2515 14.92173804 25625
LEMUR-2-STAR-FOX        
1 62696U 25009CR  25186.65857029  .00004455  00000+0  40787-3 0  9995
2 62696  97.7373 266.6644 0003791  90.9320 269.2335 14.95454654 25648
IRIDE-MS2-HEO-1         
1 62697U 25009CS  25186.91096402  .00001763  00000+0  17715-3 0  9999
2 62697  97.7360 266.4673 0004030  83.6022 276.5656 14.92506474 25653
ICEYE-X42               
1 62698U 25009CT  25186.76351834  .00002616  00000+0  25959-3 0  9993
2 62698  97.7359 266.3512 0003537 104.3038 255.8574 14.92602882 25639
LEMUR-2-ARIANNA         
1 62699U 25009CU  25186.72700793  .00005402  00000+0  49322-3 0  9998
2 62699  97.7345 266.6672 0003407 118.5160 241.6404 14.95468950 25650
ICEYE-X41               
1 62700U 25009CV  25186.76683272  .00003262  00000+0  31363-3 0  9995
2 62700  97.7369 266.5158 0003314 101.2944 258.8649 14.93694766 25647
FIREFLY-1               
1 62701U 25009CW  25186.88404371  .00001234  00000+0  12470-3 0  9995
2 62701  97.7380 266.5367 0003569  85.6849 274.4778 14.92803299 25654
